[{"OBJECT_NAME":"YAOGAN-30 07C","OBJECT_ID":"2020-021C","EPOCH":"2026-03-09T23:27:46.361088","MEAN_MOTION":15.02093061,"ECCENTRICITY":0.00023968,"INCLINATION":34.9952,"RA_OF_ASC_NODE":93.0026,"ARG_OF_PERICENTER":261.0656,"MEAN_ANOMALY":98.9781,"EPHEMERIS_TYPE":0,"CLASSIFICATION_TYPE":"U","NORAD_CAT_ID":45462,"ELEMENT_SET_NO":999,"REV_AT_EPOCH":32548,"BSTAR":0.00030590838,"MEAN_MOTION_DOT":4.073e-5,"MEAN_MOTION_DDOT":0},{"OBJECT_NAME":"STARLINK-4323","OBJECT_ID":"2022-077AC","EPOCH":"2026-03-09T22:26:55.446144","MEAN_MOTION":15.01248487,"ECCENTRICITY":0.00036931,"INCLINATION":97.6018,"RA_OF_ASC_NODE":250.447,"ARG_OF_PERICENTER":169.7375,"MEAN_ANOMALY":190.3925,"EPHEMERIS_TYPE":0,"CLASSIFICATION_TYPE":"U","NORAD_CAT_ID":53069,"ELEMENT_SET_NO":999,"REV_AT_EPOCH":20095,"BSTAR":8.992699e-5,"MEAN_MOTION_DOT":1.097e-5,"MEAN_MOTION_DDOT":0}]
